{"type": "FeatureCollection", "name": "essence-benicolet-parcels-wgs84", "crs": {"type": "name", "properties": {"name": "urn:ogc:def:crs:OGC:1.3:CRS84"}}, "features": [{"type": "Feature", "properties": {"refcat": "9578413BC4897N", "parcel_no": "13"}, "geometry": {"type": "Polygon", "coordinates": [[[0.118634, 38.700806], [0.118641, 38.700799], [0.118615, 38.700726], [0.118509, 38.700491], [0.118501, 38.700495], [0.118494, 38.7005], [0.118482, 38.700508], [0.118456, 38.700527], [0.118428, 38.700548], [0.11842, 38.700554], [0.118394, 38.700575], [0.118381, 38.700586], [0.118358, 38.700607], [0.118351, 38.700615], [0.11833, 38.700638], [0.118328, 38.70064], [0.11831, 38.700664], [0.118307, 38.700667], [0.118304, 38.700671], [0.118297, 38.700681], [0.118278, 38.700712], [0.118322, 38.700779], [0.118325, 38.700784], [0.118347, 38.700817], [0.118358, 38.700833], [0.118372, 38.700853], [0.118444, 38.70096], [0.118464, 38.700989], [0.11851, 38.700939], [0.118527, 38.700921], [0.118579, 38.700865], [0.118579, 38.700865], [0.118618, 38.700823], [0.118634, 38.700806]]]}}, {"type": "Feature", "properties": {"refcat": "9578414BC4897N", "parcel_no": "14"}, "geometry": {"type": "Polygon", "coordinates": [[[0.119202, 38.700585], [0.119198, 38.700569], [0.119197, 38.700562], [0.119189, 38.700553], [0.119186, 38.700551], [0.119161, 38.700522], [0.119156, 38.700514], [0.11901, 38.700314], [0.119002, 38.700304], [0.118976, 38.700269], [0.118971, 38.700263], [0.118953, 38.700272], [0.11892, 38.700287], [0.118919, 38.700288], [0.118917, 38.700289], [0.11885, 38.700318], [0.118815, 38.700334], [0.118803, 38.700339], [0.118772, 38.700353], [0.118703, 38.700378], [0.118692, 38.700382], [0.118668, 38.700397], [0.11863, 38.70042], [0.118609, 38.700433], [0.118601, 38.700438], [0.118612, 38.700447], [0.118629, 38.700459], [0.118641, 38.700482], [0.118661, 38.700521], [0.118708, 38.700632], [0.118736, 38.700702], [0.11876, 38.700799], [0.118785, 38.700896], [0.118799, 38.700975], [0.11889, 38.700961], [0.118943, 38.700953], [0.118956, 38.700951], [0.119137, 38.700919], [0.119141, 38.700918], [0.119142, 38.700918], [0.119151, 38.700917], [0.119143, 38.700905], [0.119144, 38.700889], [0.119144, 38.700873], [0.119144, 38.700862], [0.119144, 38.700847], [0.119145, 38.700828], [0.119145, 38.700816], [0.119146, 38.700769], [0.119188, 38.700765], [0.119222, 38.700762], [0.119221, 38.700756], [0.119219, 38.700734], [0.119214, 38.700693], [0.119209, 38.700645], [0.119202, 38.700585]]]}}, {"type": "Feature", "properties": {"refcat": "9578416BC4897N", "parcel_no": "16"}, "geometry": {"type": "Polygon", "coordinates": [[[0.119463, 38.700913], [0.119467, 38.700913], [0.119463, 38.700908], [0.11946, 38.700902], [0.119455, 38.700895], [0.119454, 38.700894], [0.119449, 38.700886], [0.119422, 38.700849], [0.119418, 38.700839], [0.119417, 38.700835], [0.119414, 38.700826], [0.119412, 38.700815], [0.119409, 38.700799], [0.119408, 38.700778], [0.119406, 38.700758], [0.119404, 38.700722], [0.119402, 38.700688], [0.1194, 38.700654], [0.119398, 38.700624], [0.119399, 38.700606], [0.119399, 38.700576], [0.119401, 38.700558], [0.119403, 38.700541], [0.119393, 38.700543], [0.119311, 38.70056], [0.119306, 38.700561], [0.1193, 38.700562], [0.119249, 38.700574], [0.119216, 38.700581], [0.119209, 38.700583], [0.119202, 38.700585], [0.119209, 38.700645], [0.119214, 38.700693], [0.119219, 38.700734], [0.119221, 38.700756], [0.119222, 38.700762], [0.119188, 38.700765], [0.119146, 38.700769], [0.119145, 38.700816], [0.119145, 38.700828], [0.119144, 38.700847], [0.119144, 38.700862], [0.119144, 38.700873], [0.119144, 38.700889], [0.119143, 38.700905], [0.119156, 38.700905], [0.119231, 38.700907], [0.119236, 38.700907], [0.119241, 38.700907], [0.119271, 38.700908], [0.119286, 38.700909], [0.119397, 38.700911], [0.119417, 38.700912], [0.119463, 38.700913]]]}}, {"type": "Feature", "properties": {"refcat": "9578417BC4897N", "parcel_no": "17"}, "geometry": {"type": "Polygon", "coordinates": [[[0.119463, 38.700913], [0.119417, 38.700912], [0.119397, 38.700911], [0.119286, 38.700909], [0.119271, 38.700908], [0.119241, 38.700907], [0.119236, 38.700907], [0.119231, 38.700907], [0.119156, 38.700905], [0.119143, 38.700905], [0.119151, 38.700917], [0.119152, 38.700932], [0.119154, 38.700963], [0.11916, 38.701019], [0.119165, 38.701047], [0.119171, 38.701063], [0.11918, 38.701078], [0.119183, 38.701082], [0.119191, 38.701092], [0.119204, 38.701105], [0.119207, 38.701106], [0.119239, 38.70112], [0.119261, 38.70113], [0.119328, 38.701141], [0.119403, 38.701149], [0.119414, 38.701148], [0.119442, 38.701146], [0.119473, 38.70113], [0.119484, 38.701126], [0.119552, 38.7011], [0.119558, 38.701098], [0.119563, 38.701061], [0.11957, 38.701017], [0.119576, 38.700977], [0.119545, 38.700973], [0.119543, 38.700973], [0.119518, 38.700965], [0.119499, 38.700953], [0.119499, 38.700953], [0.119488, 38.700939], [0.119476, 38.700925], [0.119467, 38.700913], [0.119463, 38.700913]]]}}, {"type": "Feature", "properties": {"refcat": "9578418BC4897N", "parcel_no": "18"}, "geometry": {"type": "Polygon", "coordinates": [[[0.11964, 38.700964], [0.119654, 38.700964], [0.1197, 38.700961], [0.119753, 38.700958], [0.119768, 38.700951], [0.119786, 38.700942], [0.11984, 38.700916], [0.119896, 38.700889], [0.119897, 38.700889], [0.119926, 38.700875], [0.119933, 38.700872], [0.11995, 38.700863], [0.119877, 38.700811], [0.119738, 38.700712], [0.119725, 38.700711], [0.119631, 38.700707], [0.119615, 38.700706], [0.119613, 38.700706], [0.119588, 38.700705], [0.119488, 38.700699], [0.119482, 38.700699], [0.119475, 38.700704], [0.11947, 38.700717], [0.119493, 38.700843], [0.119499, 38.700851], [0.119514, 38.700857], [0.119533, 38.700858], [0.119555, 38.700855], [0.119578, 38.700858], [0.119583, 38.70086], [0.1196, 38.700868], [0.119614, 38.700878], [0.119628, 38.700892], [0.11963, 38.700896], [0.119641, 38.700917], [0.119637, 38.700932], [0.119636, 38.700933], [0.119634, 38.700939], [0.119614, 38.700953], [0.119595, 38.700967], [0.11964, 38.700964]]]}}, {"type": "Feature", "properties": {"refcat": "9578419BC4897N", "parcel_no": "19"}, "geometry": {"type": "Polygon", "coordinates": [[[0.11995, 38.700863], [0.119953, 38.700861], [0.119969, 38.700845], [0.120031, 38.700786], [0.12005, 38.700768], [0.120052, 38.700754], [0.120062, 38.700696], [0.120069, 38.700655], [0.120122, 38.700544], [0.120119, 38.700543], [0.119945, 38.700517], [0.119934, 38.700515], [0.119883, 38.700507], [0.119851, 38.700502], [0.119836, 38.7005], [0.11976, 38.70067], [0.119758, 38.700675], [0.11972, 38.700674], [0.119711, 38.700673], [0.119638, 38.700668], [0.119624, 38.700668], [0.119593, 38.700668], [0.119583, 38.700668], [0.119541, 38.700665], [0.119504, 38.700663], [0.11949, 38.70066], [0.119488, 38.70066], [0.11948, 38.700652], [0.119475, 38.700644], [0.119474, 38.70066], [0.119471, 38.700703], [0.11947, 38.700717], [0.119475, 38.700704], [0.119482, 38.700699], [0.119488, 38.700699], [0.119588, 38.700705], [0.119613, 38.700706], [0.119615, 38.700706], [0.119631, 38.700707], [0.119725, 38.700711], [0.119738, 38.700712], [0.119877, 38.700811], [0.11995, 38.700863]]]}}, {"type": "Feature", "properties": {"refcat": "9578420BC4897N", "parcel_no": "20"}, "geometry": {"type": "Polygon", "coordinates": [[[0.119593, 38.700668], [0.119624, 38.700668], [0.119638, 38.700668], [0.119711, 38.700673], [0.11972, 38.700674], [0.119758, 38.700675], [0.11976, 38.70067], [0.119836, 38.7005], [0.119799, 38.700454], [0.119769, 38.700418], [0.119759, 38.700418], [0.119687, 38.700419], [0.119507, 38.700423], [0.119494, 38.700488], [0.119484, 38.700545], [0.119475, 38.700644], [0.11948, 38.700652], [0.119488, 38.70066], [0.11949, 38.70066], [0.119504, 38.700663], [0.119541, 38.700665], [0.119583, 38.700668], [0.119593, 38.700668]]]}}, {"type": "Feature", "properties": {"refcat": "9578421BC4897N", "parcel_no": "21"}, "geometry": {"type": "Polygon", "coordinates": [[[0.120119, 38.700543], [0.120122, 38.700544], [0.120167, 38.700499], [0.12017, 38.700496], [0.120189, 38.700483], [0.120207, 38.70047], [0.120266, 38.700407], [0.120284, 38.700387], [0.120293, 38.700377], [0.120274, 38.700314], [0.120248, 38.700228], [0.120238, 38.700201], [0.120234, 38.700191], [0.120222, 38.70016], [0.120186, 38.700066], [0.120153, 38.700007], [0.120126, 38.69996], [0.120125, 38.699957], [0.120077, 38.69988], [0.120011, 38.699763], [0.120002, 38.699755], [0.119983, 38.699735], [0.119966, 38.699719], [0.119965, 38.699718], [0.119958, 38.699719], [0.11992, 38.699728], [0.119918, 38.699729], [0.119857, 38.699755], [0.119812, 38.699772], [0.119803, 38.699775], [0.119766, 38.699793], [0.119751, 38.699799], [0.11964, 38.699852], [0.119552, 38.699898], [0.119521, 38.699915], [0.119474, 38.69994], [0.119437, 38.699962], [0.119426, 38.699972], [0.119424, 38.699981], [0.119423, 38.699996], [0.119431, 38.700015], [0.119448, 38.700035], [0.119468, 38.700064], [0.119485, 38.700088], [0.119511, 38.700145], [0.119522, 38.700181], [0.119527, 38.700261], [0.119527, 38.700261], [0.119517, 38.700332], [0.119507, 38.700423], [0.119687, 38.700419], [0.119759, 38.700418], [0.119769, 38.700418], [0.119799, 38.700454], [0.119836, 38.7005], [0.119851, 38.700502], [0.119883, 38.700507], [0.119934, 38.700515], [0.119945, 38.700517], [0.120119, 38.700543]]]}}, {"type": "Feature", "properties": {"refcat": "9578425BC4897N", "parcel_no": "25"}, "geometry": {"type": "Polygon", "coordinates": [[[0.119473, 38.701201], [0.119463, 38.701203], [0.119451, 38.701206], [0.119422, 38.701211], [0.1194, 38.701214], [0.119375, 38.701214], [0.119273, 38.701201], [0.118983, 38.701518], [0.119078, 38.701589], [0.119114, 38.701616], [0.119226, 38.701699], [0.119243, 38.701738], [0.119248, 38.701795], [0.119326, 38.701731], [0.119255, 38.701622], [0.11928, 38.701454], [0.119345, 38.701342], [0.119361, 38.701325], [0.119473, 38.701201]]]}}, {"type": "Feature", "properties": {"refcat": "9578426BC4897N", "parcel_no": "26"}, "geometry": {"type": "Polygon", "coordinates": [[[0.119473, 38.701201], [0.119361, 38.701325], [0.119345, 38.701342], [0.11928, 38.701454], [0.119255, 38.701622], [0.119326, 38.701731], [0.119382, 38.701665], [0.119509, 38.701665], [0.119677, 38.701677], [0.11973, 38.701342], [0.119658, 38.700981], [0.119654, 38.700964], [0.119654, 38.700964], [0.11964, 38.700964], [0.119639, 38.700985], [0.119639, 38.700987], [0.119638, 38.701089], [0.119632, 38.701105], [0.119627, 38.701113], [0.119615, 38.701127], [0.1196, 38.701142], [0.119582, 38.701156], [0.119558, 38.70117], [0.119552, 38.701173], [0.119533, 38.701182], [0.119507, 38.701192], [0.119479, 38.7012], [0.119473, 38.701201]]]}}, {"type": "Feature", "properties": {"refcat": "9576515BC4897N", "parcel_no": "15"}, "geometry": {"type": "Polygon", "coordinates": [[[0.119393, 38.700543], [0.119403, 38.700541], [0.119408, 38.700532], [0.119435, 38.700397], [0.119452, 38.700307], [0.119458, 38.700269], [0.119459, 38.700256], [0.119461, 38.700222], [0.119459, 38.700196], [0.119458, 38.700174], [0.11945, 38.700154], [0.119443, 38.700137], [0.119438, 38.700125], [0.119429, 38.700111], [0.119411, 38.700085], [0.119382, 38.700054], [0.119357, 38.700043], [0.119353, 38.700041], [0.119351, 38.700042], [0.119347, 38.700043], [0.11932, 38.700051], [0.119244, 38.700096], [0.119174, 38.700139], [0.119172, 38.700141], [0.119145, 38.700159], [0.119139, 38.700163], [0.119106, 38.700186], [0.119058, 38.700212], [0.119029, 38.70023], [0.118986, 38.700256], [0.118983, 38.700257], [0.118983, 38.700257], [0.118971, 38.700263], [0.118976, 38.700269], [0.119002, 38.700304], [0.11901, 38.700314], [0.119156, 38.700514], [0.119161, 38.700522], [0.119186, 38.700551], [0.119189, 38.700553], [0.119197, 38.700562], [0.119198, 38.700569], [0.119202, 38.700585], [0.119209, 38.700583], [0.119216, 38.700581], [0.119249, 38.700574], [0.1193, 38.700562], [0.119306, 38.700561], [0.119311, 38.70056], [0.119393, 38.700543]]]}}]}