{
  "type": "FeatureCollection",
  "name": "SVÄRTINGE 54:28 indicative context only",
  "crs": {
    "type": "name",
    "properties": {
      "name": "urn:ogc:def:crs:OGC::CRS84"
    }
  },
  "features": [
    {
      "type": "Feature",
      "properties": {
        "feature_id": "ADDRESS_LOCATOR",
        "evidence_state": "VERIFIED",
        "geometry_role": "MUNICIPAL_ADDRESS_TO_PROPERTY_LOCATOR_NOT_BOUNDARY"
      },
      "geometry": {
        "type": "Point",
        "coordinates": [
          16.0317063331,
          58.6522414431
        ]
      }
    },
    {
      "type": "Feature",
      "properties": {
        "feature_id": "AREA_EQUIVALENT_DISC",
        "evidence_state": "INDICATIVE",
        "geometry_role": "NOTIONAL_AREA_EQUIVALENT_DISC_NOT_PARCEL_BOUNDARY",
        "area_basis_m2": 1938.1988442902577,
        "radius_m": 24.838435005603447,
        "legal_or_survey_use": false,
        "design_setout_use": false
      },
      "geometry": {
        "type": "Polygon",
        "coordinates": [
          [
            [
              16.03213523174032,
              58.6522414431
            ],
            [
              16.03212699057321,
              58.652285280066565
            ],
            [
              16.032102583775313,
              58.652327432403084
            ],
            [
              16.032062949286182,
              58.65236628021891
            ],
            [
              16.03200961023701,
              58.65240033061426
            ],
            [
              16.031944616417544,
              58.652428275051555
            ],
            [
              16.031870465503815,
              58.652449039641716
            ],
            [
              16.03179000707385,
              58.65246182641321
            ],
            [
              16.0317063331,
              58.65246614397756
            ],
            [
              16.03162265912615,
              58.65246182641321
            ],
            [
              16.031542200696187,
              58.652449039641716
            ],
            [
              16.031468049782458,
              58.652428275051555
            ],
            [
              16.03140305596299,
              58.65240033061426
            ],
            [
              16.03134971691382,
              58.65236628021891
            ],
            [
              16.03131008242469,
              58.652327432403084
            ],
            [
              16.03128567562679,
              58.652285280066565
            ],
            [
              16.031277434459682,
              58.6522414431
            ],
            [
              16.03128567562679,
              58.65219760613344
            ],
            [
              16.03131008242469,
              58.65215545379692
            ],
            [
              16.03134971691382,
              58.6521166059811
            ],
            [
              16.03140305596299,
              58.65208255558574
            ],
            [
              16.031468049782458,
              58.65205461114845
            ],
            [
              16.031542200696187,
              58.65203384655829
            ],
            [
              16.03162265912615,
              58.6520210597868
            ],
            [
              16.0317063331,
              58.65201674222244
            ],
            [
              16.03179000707385,
              58.6520210597868
            ],
            [
              16.031870465503815,
              58.65203384655829
            ],
            [
              16.031944616417544,
              58.65205461114845
            ],
            [
              16.03200961023701,
              58.65208255558574
            ],
            [
              16.032062949286182,
              58.6521166059811
            ],
            [
              16.032102583775313,
              58.65215545379692
            ],
            [
              16.03212699057321,
              58.65219760613344
            ],
            [
              16.03213523174032,
              58.6522414431
            ]
          ]
        ]
      }
    }
  ]
}
